OBJECT_NAME,OBJECT_ID,EPOCH,MEAN_MOTION,ECCENTRICITY,INCLINATION,RA_OF_ASC_NODE,ARG_OF_PERICENTER,MEAN_ANOMALY,EPHEMERIS_TYPE,CLASSIFICATION_TYPE,NORAD_CAT_ID,ELEMENT_SET_NO,REV_AT_EPOCH,BSTAR,MEAN_MOTION_DOT,MEAN_MOTION_DDOT
SL-16 R/B,1994-077B,2026-07-02T19:23:36.874752,14.15578058,.00038456,70.9833,110.2998,313.5489,46.5314,0,U,23405,999,63252,-.2837267E-4,-.103E-5,0
ARIANE 40+ R/B,1995-021B,2026-07-02T20:08:42.749952,14.39842272,.00074178,98.4406,253.6879,148.7382,325.4514,0,U,23561,999,63581,.11736142E-3,.325E-5,0
SL-16 R/B,1995-058B,2026-07-02T17:59:52.753632,14.15510577,.00146147,71.0227,298.6838,299.1099,60.8561,0,U,23705,999,58413,-.97634347E-4,-.239E-5,0
SL-16 R/B,1996-051B,2026-07-02T18:04:43.914720,14.12451686,.00167979,70.7654,291.7060,314.6953,45.2798,0,U,24298,999,53789,.12061549E-3,.174E-5,0
ORBVIEW 2 (SEASTAR),1997-037A,2026-07-02T16:51:15.067008,14.35561746,.00033303,98.8702,351.1522,85.5489,274.6076,0,U,24883,999,52497,.11544466E-3,.286E-5,0
SL-16 R/B,1998-043G,2026-07-02T20:51:05.293728,14.26071258,.00106517,98.8371,138.1635,45.2243,314.9801,0,U,25400,999,45540,.47134576E-4,.67E-6,0
SL-16 R/B,1998-045B,2026-07-02T16:54:21.496608,14.16207018,.00087602,71.0128,299.6957,222.3711,137.6737,0,U,25407,999,44338,.11006336E-3,.17E-5,0
ISS (ZARYA),1998-067A,2026-07-01T12:11:46.289760,15.49503254,.00042241,51.6311,229.1989,255.0896,104.9625,0,U,25544,999,57397,.11826728E-3,.6185E-4,0
CZ-4B R/B,1999-025C,2026-07-02T21:24:36.226080,14.18286098,.00373371,98.6476,225.3348,15.2394,157.8018,0,U,25732,999,40449,.50837686E-4,.62E-6,0
OKEAN-O,1999-039A,2026-07-02T14:55:58.699488,14.80485585,.00011673,97.9308,242.2424,71.2630,288.8709,0,U,25860,999,45139,.93861226E-4,.666E-5,0
SL-16 R/B,1999-039B,2026-07-02T15:06:41.353920,14.81860747,.00135418,97.9830,242.4483,241.7350,118.2496,0,U,25861,999,45388,.82021669E-4,.595E-5,0
DELTA 2 R/B,1999-041E,2026-07-02T17:56:09.960864,14.12048354,.05011009,51.7614,201.6343,328.0003,29.1382,0,U,25876,999,37928,.2555803E-3,.1353E-4,0
HELIOS 1B,1999-064A,2026-07-02T17:05:18.608352,14.88048674,.00023801,98.1599,89.3003,69.9690,290.1781,0,U,25977,999,70236,.18339533E-3,.1627E-4,0
TERRA,1999-068A,2026-07-02T20:20:06.525600,14.61115956,.00027628,97.9447,232.7721,147.9475,327.8787,0,U,25994,999,41189,.10519098E-3,.473E-5,0
SL-16 R/B,2000-006B,2026-07-02T19:41:12.095232,14.15841070,.0016572,71.0011,215.7543,358.1700,1.9359,0,U,26070,999,36485,.2951455E-4,.1E-6,0
TITAN 4B R/B,2000-047B,2026-07-02T19:44:34.841472,15.10282987,.00458935,67.9887,76.5615,271.3325,88.2567,0,U,26474,999,41029,.19602257E-3,.3158E-4,0
ENVISAT,2002-009A,2026-07-03T07:44:27.966624,14.39068530,.00013863,98.3841,135.2816,85.4464,37.9247,0,U,27386,999,27580,.44422158E-4,.94E-6,0
IDEFIX & ARIANE 42P R/B,2002-021B,2026-07-02T18:59:01.077216,14.31089266,.0011124,98.5942,121.1052,203.7093,156.3578,0,U,27422,999,26048,.11191697E-3,.251E-5,0
AQUA,2002-022A,2026-07-03T08:39:40.446720,14.62182845,.00006948,98.4286,153.9676,84.4551,81.4729,0,U,27424,999,28563,.17814596E-3,.847E-5,0
CZ-4B R/B,2002-024C,2026-07-02T14:36:52.656192,14.14566803,.0051023,98.8692,236.3284,57.3217,103.7872,0,U,27432,999,24548,.49256E-4,.52E-6,0
MIDORI II (ADEOS-II),2002-056A,2026-07-02T21:19:15.908448,14.29357897,.0001922,98.7886,143.2822,55.7041,304.4322,0,U,27597,999,22675,.11907542E-3,.258E-5,0
H-2A R/B,2002-056E,2026-07-02T20:26:15.068256,14.33829076,.00700802,98.3320,139.9557,177.5186,237.5353,0,U,27601,999,23061,.10624397E-3,.262E-5,0
CZ-4B R/B,2003-049C,2026-07-02T20:10:26.718528,14.55110204,.00470401,98.6901,183.3106,239.6292,120.0249,0,U,28059,999,20334,.92209569E-4,.352E-5,0
CZ-2C R/B,2004-012C,2026-07-02T19:09:46.656288,15.82291172,.00108989,97.7056,261.3152,228.3172,131.7164,0,U,28222,999,22236,.64062159E-3,.133736E-2,0
SL-16 R/B,2004-021B,2026-07-02T20:37:29.318304,14.14610707,.00066344,71.0014,350.7970,235.8203,124.2291,0,U,28353,999,13912,.17455878E-3,.288E-5,0
CZ-4B R/B,2004-035C,2026-07-02T19:42:59.105088,15.30846438,.0028836,97.3356,216.7205,279.2841,80.5140,0,U,28415,999,19751,.30597234E-3,.916E-4,0
CZ-2C R/B,2004-046B,2026-07-02T18:10:48.951264,14.27030203,.01393962,98.1931,91.5644,174.0576,186.2300,0,U,28480,999,12491,.60418272E-4,.122E-5,0
ARIANE 5 R/B,2004-049H,2026-07-02T11:43:01.051104,14.85467300,.0083367,98.2731,356.3331,339.8866,19.9069,0,U,28499,999,16283,.73602E-4,.609E-5,0
CZ-2D R/B,2005-024B,2026-07-02T12:17:56.465376,15.71309237,.0000436,97.3468,203.7241,327.5456,32.5780,0,U,28738,999,15774,.48297E-3,.61403E-3,0
ALOS (DAICHI),2006-002A,2026-07-02T21:09:30.963168,14.70082911,.00008808,98.1329,139.4007,64.6265,295.5032,0,U,28931,999,9040,.21820556E-3,.1261E-4,0
